{"type": "FeatureCollection", "features": [ {"type": "Feature", "properties": {"norad_id": 38953, "name": "BEIDOU-2 G6 (C02)", "group": "beidou", "lat": 3.670056359888136, "lon": 141.84881553844528, "alt_km": 35807.58432888416, "timestamp": "2025-12-27T21:25:02.778757+00:00", "meta": {"OBJECT_NAME": "BEIDOU-2 G6 (C02)", "OBJECT_ID": "2012-059A", "EPOCH": "2025-12-26T23:45:51.765408", "MEAN_MOTION": 1.00274409, "ECCENTRICITY": 0.00079487, "INCLINATION": 3.9833, "RA_OF_ASC_NODE": 75.3705, "ARG_OF_PERICENTER": 293.6669, "MEAN_ANOMALY": 167.1065, "EPHEMERIS_TYPE": 0, "CLASSIFICATION_TYPE": "U", "NORAD_CAT_ID": 38953, "ELEMENT_SET_NO": 999, "REV_AT_EPOCH": 4818, "BSTAR": 0, "MEAN_MOTION_DOT": -1.55e-06, "MEAN_MOTION_DDOT": 0}, "tle": {"line1": "1 38953U 12059A   25360.99018247 -.00000155  00000+0  00000+0 0  9991", "line2": "2 38953   3.9833  75.3705 0007948 293.6669 167.1065  1.00274409 48186"}}, "geometry": {"type": "Point", "coordinates": [141.84881553844528, 3.670056359888136]}}, {"type": "Feature", "properties": {"norad_id": 40549, "name": "BEIDOU-3S IGSO-1S (C31)", "group": "beidou", "lat": -26.183848803369443, "lon": 142.29243679204308, "alt_km": 35641.471944074, "timestamp": "2025-12-27T21:25:02.778791+00:00", "meta": {"OBJECT_NAME": "BEIDOU-3S IGSO-1S (C31)", "OBJECT_ID": "2015-019A", "EPOCH": "2025-12-26T19:27:32.429664", "MEAN_MOTION": 1.00290016, "ECCENTRICITY": 0.00365106, "INCLINATION": 49.5251, "RA_OF_ASC_NODE": 297.5457, "ARG_OF_PERICENTER": 194.1839, "MEAN_ANOMALY": 350.566, "EPHEMERIS_TYPE": 0, "CLASSIFICATION_TYPE": "U", "NORAD_CAT_ID": 40549, "ELEMENT_SET_NO": 999, "REV_AT_EPOCH": 3934, "BSTAR": 0, "MEAN_MOTION_DOT": -1.81e-06, "MEAN_MOTION_DDOT": 0}, "tle": {"line1": "1 40549U 15019A   25360.81079201 -.00000181  00000+0  00000+0 0  9991", "line2": "2 40549  49.5251 297.5457 0036510 194.1839 350.5660  1.00290016 39342"}}, "geometry": {"type": "Point", "coordinates": [142.29243679204308, -26.183848803369443]}}, {"type": "Feature", "properties": {"norad_id": 40748, "name": "BEIDOU-3S M2S (C58)", "group": "beidou", "lat": -54.50987664517028, "lon": -153.32997483368777, "alt_km": 21501.346425458447, "timestamp": "2025-12-27T21:25:02.778823+00:00", "meta": {"OBJECT_NAME": "BEIDOU-3S M2S (C58)", "OBJECT_ID": "2015-037A", "EPOCH": "2025-12-26T23:05:37.447872", "MEAN_MOTION": 1.86229536, "ECCENTRICITY": 0.00118283, "INCLINATION": 55.026, "RA_OF_ASC_NODE": 307.9762, "ARG_OF_PERICENTER": 271.2374, "MEAN_ANOMALY": 88.6344, "EPHEMERIS_TYPE": 0, "CLASSIFICATION_TYPE": "U", "NORAD_CAT_ID": 40748, "ELEMENT_SET_NO": 999, "REV_AT_EPOCH": 7091, "BSTAR": 0, "MEAN_MOTION_DOT": -5.8e-07, "MEAN_MOTION_DDOT": 0}, "tle": {"line1": "1 40748U 15037A   25360.96223898 -.00000058  00000+0  00000+0 0  9994", "line2": "2 40748  55.0260 307.9762 0011828 271.2374  88.6344  1.86229536 70915"}}, "geometry": {"type": "Point", "coordinates": [-153.32997483368777, -54.50987664517028]}}, {"type": "Feature", "properties": {"norad_id": 40749, "name": "BEIDOU-3S M1S (C57)", "group": "beidou", "lat": 50.04453309637211, "lon": 71.31728245653964, "alt_km": 21522.966263930382, "timestamp": "2025-12-27T21:25:02.778843+00:00", "meta": {"OBJECT_NAME": "BEIDOU-3S M1S (C57)", "OBJECT_ID": "2015-037B", "EPOCH": "2025-12-27T04:34:21.423072", "MEAN_MOTION": 1.86253811, "ECCENTRICITY": 0.0003729, "INCLINATION": 55.0221, "RA_OF_ASC_NODE": 307.9572, "ARG_OF_PERICENTER": 3.3585, "MEAN_ANOMALY": 356.651, "EPHEMERIS_TYPE": 0, "CLASSIFICATION_TYPE": "U", "NORAD_CAT_ID": 40749, "ELEMENT_SET_NO": 999, "REV_AT_EPOCH": 7092, "BSTAR": 0, "MEAN_MOTION_DOT": -5.9e-07, "MEAN_MOTION_DDOT": 0}, "tle": {"line1": "1 40749U 15037B   25361.19052573 -.00000059  00000+0  00000+0 0  9992", "line2": "2 40749  55.0221 307.9572 0003729   3.3585 356.6510  1.86253811 70928"}}, "geometry": {"type": "Point", "coordinates": [71.31728245653964, 50.04453309637211]}}, {"type": "Feature", "properties": {"norad_id": 40938, "name": "BEIDOU-3S IGSO-2S (C56)", "group": "beidou", "lat": -46.761776573591035, "lon": 146.04219952446616, "alt_km": 35683.70168333901, "timestamp": "2025-12-27T21:25:02.778856+00:00", "meta": {"OBJECT_NAME": "BEIDOU-3S IGSO-2S (C56)", "OBJECT_ID": "2015-053A", "EPOCH": "2025-12-27T13:45:43.029216", "MEAN_MOTION": 1.00266563, "ECCENTRICITY": 0.0060728, "INCLINATION": 49.4874, "RA_OF_ASC_NODE": 260.8314, "ARG_OF_PERICENTER": 188.237, "MEAN_ANOMALY": 309.3634, "EPHEMERIS_TYPE": 0, "CLASSIFICATION_TYPE": "U", "NORAD_CAT_ID": 40938, "ELEMENT_SET_NO": 999, "REV_AT_EPOCH": 3763, "BSTAR": 0, "MEAN_MOTION_DOT": -1.27e-06, "MEAN_MOTION_DDOT": 0}, "tle": {"line1": "1 40938U 15053A   25361.57341469 -.00000127  00000+0  00000+0 0  9993", "line2": "2 40938  49.4874 260.8314 0060728 188.2370 309.3634  1.00266563 37634"}}, "geometry": {"type": "Point", "coordinates": [146.04219952446616, -46.761776573591035]}}, {"type": "Feature", "properties": {"norad_id": 41434, "name": "BEIDOU-2 IGSO-6 (C13)", "group": "beidou", "lat": 53.79705464447449, "lon": 167.64965292646724, "alt_km": 35900.3480744928, "timestamp": "2025-12-27T21:25:02.778869+00:00", "meta": {"OBJECT_NAME": "BEIDOU-2 IGSO-6 (C13)", "OBJECT_ID": "2016-021A", "EPOCH": "2025-12-25T02:21:14.682240", "MEAN_MOTION": 1.00290736, "ECCENTRICITY": 0.00608236, "INCLINATION": 59.9818, "RA_OF_ASC_NODE": 39.7747, "ARG_OF_PERICENTER": 230.5129, "MEAN_ANOMALY": 312.5474, "EPHEMERIS_TYPE": 0, "CLASSIFICATION_TYPE": "U", "NORAD_CAT_ID": 41434, "ELEMENT_SET_NO": 999, "REV_AT_EPOCH": 3573, "BSTAR": 0, "MEAN_MOTION_DOT": -1.35e-06, "MEAN_MOTION_DDOT": 0}, "tle": {"line1": "1 41434U 16021A   25359.09808660 -.00000135  00000+0  00000+0 0  9995", "line2": "2 41434  59.9818  39.7747 0060823 230.5129 312.5474  1.00290736 35738"}}, "geometry": {"type": "Point", "coordinates": [167.64965292646724, 53.79705464447449]}}, {"type": "Feature", "properties": {"norad_id": 41586, "name": "BEIDOU-2 G7 (C03)", "group": "beidou", "lat": 1.7686056587073198, "lon": 168.38354666412488, "alt_km": 35785.306922764656, "timestamp": "2025-12-27T21:25:02.778881+00:00", "meta": {"OBJECT_NAME": "BEIDOU-2 G7 (C03)", "OBJECT_ID": "2016-037A", "EPOCH": "2025-12-27T11:48:49.644864", "MEAN_MOTION": 1.00277493, "ECCENTRICITY": 0.0005217, "INCLINATION": 1.7909, "RA_OF_ASC_NODE": 67.9201, "ARG_OF_PERICENTER": 7.7037, "MEAN_ANOMALY": 308.2431, "EPHEMERIS_TYPE": 0, "CLASSIFICATION_TYPE": "U", "NORAD_CAT_ID": 41586, "ELEMENT_SET_NO": 999, "REV_AT_EPOCH": 516, "BSTAR": 0, "MEAN_MOTION_DOT": -3.32e-06, "MEAN_MOTION_DDOT": 0}, "tle": {"line1": "1 41586U 16037A   25361.49224126 -.00000332  00000+0  00000+0 0  9995", "line2": "2 41586   1.7909  67.9201 0005217   7.7037 308.2431  1.00277493  5162"}}, "geometry": {"type": "Point", "coordinates": [168.38354666412488, 1.7686056587073198]}}, {"type": "Feature", "properties": {"norad_id": 43001, "name": "BEIDOU-3 M1 (C19)", "group": "beidou", "lat": 26.42831254993836, "lon": 87.91433186610872, "alt_km": 21524.81239413829, "timestamp": "2025-12-27T21:25:02.778893+00:00", "meta": {"OBJECT_NAME": "BEIDOU-3 M1 (C19)", "OBJECT_ID": "2017-069A", "EPOCH": "2025-12-25T03:49:47.920224", "MEAN_MOTION": 1.86231313, "ECCENTRICITY": 0.0009789, "INCLINATION": 56.5365, "RA_OF_ASC_NODE": 68.8241, "ARG_OF_PERICENTER": 302.2681, "MEAN_ANOMALY": 57.6912, "EPHEMERIS_TYPE": 0, "CLASSIFICATION_TYPE": "U", "NORAD_CAT_ID": 43001, "ELEMENT_SET_NO": 999, "REV_AT_EPOCH": 5536, "BSTAR": 0, "MEAN_MOTION_DOT": -2.5e-07, "MEAN_MOTION_DDOT": 0}, "tle": {"line1": "1 43001U 17069A   25359.15958241 -.00000025  00000+0  00000+0 0  9996", "line2": "2 43001  56.5365  68.8241 0009789 302.2681  57.6912  1.86231313 55361"}}, "geometry": {"type": "Point", "coordinates": [87.91433186610872, 26.42831254993836]}}, {"type": "Feature", "properties": {"norad_id": 43002, "name": "BEIDOU-3 M2 (C20)", "group": "beidou", "lat": 53.163605463464485, "lon": 130.6446016194456, "alt_km": 21527.000087956225, "timestamp": "2025-12-27T21:25:02.778905+00:00", "meta": {"OBJECT_NAME": "BEIDOU-3 M2 (C20)", "OBJECT_ID": "2017-069B", "EPOCH": "2025-12-25T15:14:16.903968", "MEAN_MOTION": 1.86231039, "ECCENTRICITY": 0.0006764, "INCLINATION": 56.5366, "RA_OF_ASC_NODE": 68.8439, "ARG_OF_PERICENTER": 327.6836, "MEAN_ANOMALY": 32.3283, "EPHEMERIS_TYPE": 0, "CLASSIFICATION_TYPE": "U", "NORAD_CAT_ID": 43002, "ELEMENT_SET_NO": 999, "REV_AT_EPOCH": 5536, "BSTAR": 0, "MEAN_MOTION_DOT": -2.7e-07, "MEAN_MOTION_DDOT": 0}, "tle": {"line1": "1 43002U 17069B   25359.63491787 -.00000027  00000+0  00000+0 0  9999", "line2": "2 43002  56.5366  68.8439 0006764 327.6836  32.3283  1.86231039 55361"}}, "geometry": {"type": "Point", "coordinates": [130.6446016194456, 53.163605463464485]}}, {"type": "Feature", "properties": {"norad_id": 43107, "name": "BEIDOU-3 M7 (C27)", "group": "beidou", "lat": -48.05372477952515, "lon": -179.17481849693192, "alt_km": 21541.53253210139, "timestamp": "2025-12-27T21:25:02.778916+00:00", "meta": {"OBJECT_NAME": "BEIDOU-3 M7 (C27)", "OBJECT_ID": "2018-003A", "EPOCH": "2025-12-26T23:43:35.331168", "MEAN_MOTION": 1.86232541, "ECCENTRICITY": 0.00029586, "INCLINATION": 54.484, "RA_OF_ASC_NODE": 308.3202, "ARG_OF_PERICENTER": 66.0283, "MEAN_ANOMALY": 294.0099, "EPHEMERIS_TYPE": 0, "CLASSIFICATION_TYPE": "U", "NORAD_CAT_ID": 43107, "ELEMENT_SET_NO": 999, "REV_AT_EPOCH": 5414, "BSTAR": 0, "MEAN_MOTION_DOT": -5.9e-07, "MEAN_MOTION_DDOT": 0}, "tle": {"line1": "1 43107U 18003A   25360.98860337 -.00000059  00000+0  00000+0 0  9990", "line2": "2 43107  54.4840 308.3202 0002958  66.0283 294.0099  1.86232541 54148"}}, "geometry": {"type": "Point", "coordinates": [-179.17481849693192, -48.05372477952515]}}]}